[{"OBJECT_NAME":"ICEYE-X31","OBJECT_ID":"2023-174AJ","EPOCH":"2026-03-09T23:06:20.433600","MEAN_MOTION":15.30950809,"ECCENTRICITY":0.00015021,"INCLINATION":97.3851,"RA_OF_ASC_NODE":144.9524,"ARG_OF_PERICENTER":332.6589,"MEAN_ANOMALY":27.4572,"EPHEMERIS_TYPE":0,"CLASSIFICATION_TYPE":"U","NORAD_CAT_ID":58288,"ELEMENT_SET_NO":999,"REV_AT_EPOCH":12955,"BSTAR":0.00066288467,"MEAN_MOTION_DOT":0.00019777,"MEAN_MOTION_DDOT":0},{"OBJECT_NAME":"STARLINK-32779","OBJECT_ID":"2025-034B","EPOCH":"2026-03-09T17:04:26.543712","MEAN_MOTION":15.30191894,"ECCENTRICITY":0.0001004,"INCLINATION":53.1574,"RA_OF_ASC_NODE":271.2683,"ARG_OF_PERICENTER":65.7568,"MEAN_ANOMALY":294.3537,"EPHEMERIS_TYPE":0,"CLASSIFICATION_TYPE":"U","NORAD_CAT_ID":63030,"ELEMENT_SET_NO":999,"REV_AT_EPOCH":5890,"BSTAR":0.0013815043,"MEAN_MOTION_DOT":0.00040771,"MEAN_MOTION_DDOT":0}]
